QIANFAN-49              
1 62250U 24232P   25351.58038196  .00000101  00000+0  13727-3 0  9998
2 62250  89.0023  40.7482 0014707 173.5807 186.5536 13.50979866 68499
QIANFAN-50              
1 62251U 24232Q   25351.60504517  .00000093  00000+0  12461-3 0  9991
2 62251  89.0029  40.7540 0016308 175.5907 184.5391 13.50981370 68527
QIANFAN-51              
1 62252U 24232R   25351.58861714  .00000094  00000+0  12629-3 0  9991
2 62252  89.0022  40.7493 0013687 177.9083 182.2128 13.50979462 68517
QIANFAN-52              
1 62253U 24232S   25351.61743101  .00000098  00000+0  13322-3 0  9990
2 62253  89.0019  40.6198 0015935 171.4264 188.7162 13.50977592 68604
QIANFAN-53              
1 62254U 24232T   25351.59683502  .00000087  00000+0  11544-3 0  9998
2 62254  89.0026  40.7268 0014785 172.0028 188.1361 13.50979970 68561
QIANFAN-54              
1 62255U 24232U   25351.63799431  .00000092  00000+0  12394-3 0  9993
2 62255  89.0017  40.4006 0002073 163.9982 196.1235 13.50980189100070
QIANFAN-55              
1 62785U 25016A   25351.58998312  .00000143  00000+0  20277-3 0  9991
2 62785  88.9783 102.7096 0016185 338.8748  21.1733 13.50988763 47840
QIANFAN-56              
1 62786U 25016B   25351.60642842  .00000140  00000+0  19783-3 0  9996
2 62786  88.9756 102.5431 0014893 341.7990  18.2626 13.50979924 47890
